[{"OBJECT_NAME":"STARLINK-5719","OBJECT_ID":"2023-020AS","EPOCH":"2026-03-09T22:00:01.999584","MEAN_MOTION":15.05188351,"ECCENTRICITY":0.00017305,"INCLINATION":43.0005,"RA_OF_ASC_NODE":350.6387,"ARG_OF_PERICENTER":226.8132,"MEAN_ANOMALY":41.2443,"EPHEMERIS_TYPE":0,"CLASSIFICATION_TYPE":"U","NORAD_CAT_ID":55609,"ELEMENT_SET_NO":999,"REV_AT_EPOCH":557,"BSTAR":0.0011512723,"MEAN_MOTION_DOT":0.00016524,"MEAN_MOTION_DDOT":0},{"OBJECT_NAME":"CZ-4B DEB","OBJECT_ID":"2008-053K","EPOCH":"2026-03-03T06:56:31.900704","MEAN_MOTION":15.04681815,"ECCENTRICITY":0.00115476,"INCLINATION":97.843,"RA_OF_ASC_NODE":88.8262,"ARG_OF_PERICENTER":63.9062,"MEAN_ANOMALY":296.3351,"EPHEMERIS_TYPE":0,"CLASSIFICATION_TYPE":"U","NORAD_CAT_ID":36289,"ELEMENT_SET_NO":999,"REV_AT_EPOCH":93214,"BSTAR":0.00025594062,"MEAN_MOTION_DOT":3.541e-5,"MEAN_MOTION_DDOT":0}]
